NORAD_CAT_ID,OBJECT_NAME,OBJECT_TYPE,EPOCH,MEAN_MOTION,ECCENTRICITY,INCLINATION,RA_OF_ASC_NODE,ARG_OF_PERICENTER,MEAN_ANOMALY,BSTAR,MEAN_MOTION_DOT,MEAN_MOTION_DDOT,TLE_LINE0,TLE_LINE1,TLE_LINE2,SEMIMAJOR_AXIS,PERIOD,APOGEE,PERIGEE,DECAYED
53022.0,STARLINK-4216,PAYLOAD,2024-05-01 01:02:24,15.0884669,0.0001396,53.2178,246.196,95.9867,264.1284,0.00019413,2.804e-05,0.0,0 STARLINK-4216,1 53022U 22076AN  24122.04334057  .00002804  00000-0  19413-3 0  9991,2 53022  53.2178 246.1960 0001396  95.9867 264.1284 15.08846690101153,6917.86,95.437,540.691,538.759,0.0
53022.0,STARLINK-4216,PAYLOAD,2024-05-01 15:20:52,15.08846219,0.0001337,53.2176,243.5184,91.4741,268.6404,7.1847e-05,8.56e-06,0.0,0 STARLINK-4216,1 53022U 22076AN  24122.63949930  .00000856  00000-0  71847-4 0  9993,2 53022  53.2176 243.5184 0001337  91.4741 268.6404 15.08846219100774,6917.861,95.437,540.651,538.801,0.0
53022.0,STARLINK-4216,PAYLOAD,2024-05-02 13:36:17,15.0883156,0.0001446,53.2169,239.3549,89.1925,270.9233,-8.8117e-05,-1.69e-05,0.0,0 STARLINK-4216,1 53022U 22076AN  24123.56686636 -.00001690  00000-0 -88117-4 0  9994,2 53022  53.2169 239.3549 0001446  89.1925 270.9233 15.08831560101380,6917.906,95.438,540.772,538.771,0.0
53022.0,STARLINK-4216,PAYLOAD,2024-05-03 00:43:58,15.08846709,0.0001235,53.2157,237.2704,87.5357,272.5776,0.00010459,1.377e-05,0.0,0 STARLINK-4216,1 53022U 22076AN  24124.03053830  .00001377  00000-0  10459-3 0  9994,2 53022  53.2157 237.2704 0001235  87.5357 272.5776 15.08846709101453,6917.86,95.437,540.579,538.871,0.0
53022.0,STARLINK-4216,PAYLOAD,2024-05-03 15:02:27,15.0884352,0.0001571,53.2145,234.5971,92.9725,267.1446,0.00043002,6.563e-05,0.0,0 STARLINK-4216,1 53022U 22076AN  24124.62670141  .00006563  00000-0  43002-3 0  9991,2 53022  53.2145 234.5971 0001571  92.9725 267.1446 15.08843520101078,6917.87,95.437,540.821,538.648,0.0
53022.0,STARLINK-4216,PAYLOAD,2024-05-03 16:37:49,15.08852552,0.0001275,53.2148,234.2981,90.1389,269.9749,0.00028892,4.315e-05,0.0,0 STARLINK-4216,1 53022U 22076AN  24124.69293603  .00004315  00000-0  28892-3 0  9995,2 53022  53.2148 234.2981 0001275  90.1389 269.9749 15.08852552101088,6917.842,95.437,540.589,538.825,0.0
53022.0,STARLINK-4216,PAYLOAD,2024-05-04 13:17:51,15.08827351,0.0001306,53.2158,230.4339,100.9614,259.1525,-0.00014563,-2.604e-05,0.0,0 STARLINK-4216,1 53022U 22076AN  24125.55406684 -.00002604  00000-0 -14563-3 0  9997,2 53022  53.2158 230.4339 0001306 100.9614 259.1525 15.08827351101688,6917.919,95.438,540.688,538.881,0.0
53022.0,STARLINK-4216,PAYLOAD,2024-05-05 00:25:33,15.08834184,0.0001372,53.2155,228.3517,104.5827,255.5317,0.00023356,3.431e-05,0.0,0 STARLINK-4216,1 53022U 22076AN  24126.01774776  .00003431  00000-0  23356-3 0  9996,2 53022  53.2155 228.3517 0001372 104.5827 255.5317 15.08834184101757,6917.898,95.438,540.712,538.814,0.0
53022.0,STARLINK-4216,PAYLOAD,2024-05-05 13:08:38,15.08860994,0.0001259,53.216,225.9735,99.9546,260.1588,0.0016266,0.00025709,0.0,0 STARLINK-4216,1 53022U 22076AN  24126.54766672  .00025709  00000-0  16266-2 0  9993,2 53022  53.2160 225.9735 0001259  99.9546 260.1588 15.08860994101836,6917.816,95.436,540.552,538.81,0.0
53022.0,STARLINK-4216,PAYLOAD,2024-05-05 16:19:24,15.08867836,0.0001247,53.2161,225.3788,98.7204,261.393,0.0017187,0.00027192,0.0,0 STARLINK-4216,1 53022U 22076AN  24126.68014466  .00027192  00000-0  17187-2 0  9996,2 53022  53.2161 225.3788 0001247  98.7204 261.3930 15.08867836101380,6917.795,95.436,540.523,538.798,0.0
53022.0,STARLINK-4216,PAYLOAD,2024-05-06 12:59:24,15.088591,0.0001116,53.2165,221.513,87.7554,272.3566,0.0014034,0.00022129,0.0,0 STARLINK-4216,1 53022U 22076AN  24127.54126084  .00022129  00000-0  14034-2 0  9995,2 53022  53.2165 221.5130 0001116  87.7554 272.3566 15.08859100101982,6917.822,95.436,540.459,538.915,0.0
53022.0,STARLINK-4216,PAYLOAD,2024-05-07 12:50:12,15.08836222,0.0001313,53.217,217.0513,101.6888,258.4251,0.0001435,1.996e-05,0.0,0 STARLINK-4216,1 53022U 22076AN  24128.53486650  .00001996  00000-0  14350-3 0  9994,2 53022  53.2170 217.0513 0001313 101.6888 258.4251 15.08836222102132,6917.892,95.438,540.665,538.849,0.0
53022.0,STARLINK-4216,PAYLOAD,2024-05-07 16:00:58,15.08830366,0.0001234,53.2171,216.4582,104.2489,255.864,5.3943e-05,5.71e-06,0.0,0 STARLINK-4216,1 53022U 22076AN  24128.66734871  .00000571  00000-0  53943-4 0  9999,2 53022  53.2171 216.4582 0001234 104.2489 255.8640 15.08830366101685,6917.91,95.438,540.629,538.921,0.0
53022.0,STARLINK-4216,PAYLOAD,2024-05-08 14:16:22,15.08847147,0.0001349,53.2174,212.2972,107.1664,252.9475,0.0005313,8.179e-05,0.0,0 STARLINK-4216,1 53022U 22076AN  24129.59470909  .00008179  00000-0  53130-3 0  9990,2 53022  53.2174 212.2972 0001349 107.1664 252.9475 15.08847147101824,6917.859,95.437,540.657,538.79,0.0
53022.0,STARLINK-4216,PAYLOAD,2024-05-08 22:13:17,15.08866917,0.0001108,53.2163,210.8085,98.7485,261.3632,0.0010098,0.00015831,0.0,0 STARLINK-4216,1 53022U 22076AN  24129.92590243  .00015831  00000-0  10098-2 0  9999,2 53022  53.2163 210.8085 0001108  98.7485 261.3632 15.08866917101870,6917.798,95.436,540.43,538.897,0.0
53022.0,STARLINK-4216,PAYLOAD,2024-05-09 12:31:45,15.08867815,0.000112,53.2163,208.133,89.3131,270.7989,0.00064124,9.94e-05,0.0,0 STARLINK-4216,1 53022U 22076AN  24130.52205638  .00009940  00000-0  64124-3 0  9992,2 53022  53.2163 208.1330 0001120  89.3131 270.7989 15.08867815102431,6917.795,95.436,540.435,538.886,0.0
53022.0,STARLINK-4216,PAYLOAD,2024-05-10 12:22:32,15.08846096,0.000175,53.2147,203.6701,169.1632,190.9398,0.00048924,7.508e-05,0.0,0 STARLINK-4216,1 53022U 22076AN  24131.51565386  .00007508  00000-0  48924-3 0  9999,2 53022  53.2147 203.6701 0001750 169.1632 190.9398 15.08846096102588,6917.862,95.437,540.937,538.516,0.0
53022.0,STARLINK-4216,PAYLOAD,2024-05-11 12:13:18,15.08955773,0.0001536,53.2149,199.2079,66.8219,293.2935,0.0050298,0.00080938,0.0,0 STARLINK-4216,1 53022U 22076AN  24132.50923850  .00080938  00000-0  50298-2 0  9997,2 53022  53.2149 199.2079 0001536  66.8219 293.2935 15.08955773102738,6917.527,95.43,540.454,538.329,0.0
53022.0,STARLINK-4216,PAYLOAD,2024-05-11 21:45:37,15.0887252,0.0001961,53.2152,197.4264,78.0109,282.1103,0.0004077,6.212e-05,0.0,0 STARLINK-4216,1 53022U 22076AN  24132.90668170  .00006212  00000-0  40770-3 0  9990,2 53022  53.2152 197.4264 0001961  78.0109 282.1103 15.08872520102320,6917.781,95.435,541.003,538.289,0.0
53022.0,STARLINK-4216,PAYLOAD,2024-05-12 04:07:12,15.0871292,0.0002338,53.2138,196.2379,94.6863,265.4396,-0.005684,-0.00089323,0.0,0 STARLINK-4216,1 53022U 22076AN  24133.17166962 -.00089323  00000-0 -56840-2 0  9992,2 53022  53.2138 196.2379 0002338  94.6863 265.4396 15.08712920102839,6918.269,95.446,541.751,538.516,0.0
53022.0,STARLINK-4216,PAYLOAD,2024-05-12 10:28:48,15.08627661,0.0001637,53.2146,195.0473,114.6045,245.5118,0.0017361,0.0002729,0.0,0 STARLINK-4216,1 53022U 22076AN  24133.43667448  .00027290  00000-0  17361-2 0  9994,2 53022  53.2146 195.0473 0001637 114.6045 245.5118 15.08627661102878,6918.53,95.451,541.527,539.262,0.0
53022.0,STARLINK-4216,PAYLOAD,2024-05-12 21:36:36,15.08636206,0.0001552,53.2145,192.9664,114.4399,245.6755,0.0011296,0.00017635,0.0,0 STARLINK-4216,1 53022U 22076AN  24133.90041965  .00017635  00000-0  11296-2 0  9999,2 53022  53.2145 192.9664 0001552 114.4399 245.6755 15.08636206102942,6918.503,95.45,541.442,539.295,0.0
53022.0,STARLINK-4216,PAYLOAD,2024-05-13 10:19:42,15.0880436,0.0001074,53.2141,190.5872,93.3391,266.7724,0.0038932,0.00062158,0.0,0 STARLINK-4216,1 53022U 22076AN  24134.43034761  .00062158  00000-0  38932-2 0  9990,2 53022  53.2141 190.5872 0001074  93.3391 266.7724 15.08804360103027,6917.989,95.44,540.597,539.111,0.0
53022.0,STARLINK-4216,PAYLOAD,2024-05-14 10:10:25,15.08907344,0.0001249,53.2152,186.1263,90.6053,269.5082,0.00048311,7.423e-05,0.0,0 STARLINK-4216,1 53022U 22076AN  24135.42390462  .00007423  00000-0  48311-3 0  9990,2 53022  53.2152 186.1263 0001249  90.6053 269.5082 15.08907344103173,6917.675,95.433,540.404,538.676,0.0
53022.0,STARLINK-4216,PAYLOAD,2024-05-15 10:01:08,15.08921954,0.0001165,53.215,181.6648,84.7152,275.3973,0.00066897,0.00010398,0.0,0 STARLINK-4216,1 53022U 22076AN  24136.41745718  .00010398  00000-0  66897-3 0  9992,2 53022  53.2150 181.6648 0001165  84.7152 275.3973 15.08921954102850,6917.63,95.432,540.301,538.689,0.0
53022.0,STARLINK-4216,PAYLOAD,2024-05-16 13:02:39,15.08874061,0.0001158,53.215,176.6089,94.7544,265.3581,-0.000395,-6.575e-05,0.0,0 STARLINK-4216,1 53022U 22076AN  24137.54350787 -.00006575  00000-0 -39500-3 0  9990,2 53022  53.2150 176.6089 0001158  94.7544 265.3581 15.08874061103492,6917.776,95.435,540.442,538.84,0.0
53022.0,STARLINK-4216,PAYLOAD,2024-05-16 19:24:11,15.08878397,0.0001254,53.2164,175.4197,88.0895,272.0241,-0.00017245,-3.034e-05,0.0,0 STARLINK-4216,1 53022U 22076AN  24137.80846194 -.00003034  00000-0 -17245-3 0  9990,2 53022  53.2164 175.4197 0001254  88.0895 272.0241 15.08878397103063,6917.763,95.435,540.496,538.761,0.0
53022.0,STARLINK-4216,PAYLOAD,2024-05-17 11:18:03,15.08829903,0.0001624,53.2152,172.4498,103.9611,256.1562,-0.00056898,-9.329e-05,0.0,0 STARLINK-4216,1 53022U 22076AN  24138.47087726 -.00009329  00000-0 -56898-3 0  9992,2 53022  53.2152 172.4498 0001624 103.9611 256.1562 15.08829903103636,6917.911,95.438,540.9,538.653,0.0
53022.0,STARLINK-4216,PAYLOAD,2024-05-17 19:14:59,15.08839595,0.0001455,53.2157,170.96,96.5288,263.587,-0.00023638,-4.048e-05,0.0,0 STARLINK-4216,1 53022U 22076AN  24138.80207593 -.00004048  00000-0 -23638-3 0  9994,2 53022  53.2157 170.9600 0001455  96.5288 263.5870 15.08839595103685,6917.882,95.438,540.753,538.74,0.0
53022.0,STARLINK-4216,PAYLOAD,2024-05-18 11:08:50,15.08867328,0.0001388,53.2143,167.987,98.3471,261.7678,0.0015702,0.00024809,0.0,0 STARLINK-4216,1 53022U 22076AN  24139.46447734  .00024809  00000-0  15702-2 0  9997,2 53022  53.2143 167.9870 0001388  98.3471 261.7678 15.08867328103786,6917.797,95.436,540.622,538.702,0.0
